sat32227
1 32227U 99025CVZ 20046.95928583  .00000534  00000-0  72433-4 0  9997
2 32227  99.4794 116.6994 0141588 269.4499 265.6938 14.78119889677539
